IRIDIUM 63              
1 25286U 98021B   25065.57291024  .00000513  00000+0  16837-3 0  9997
2 25286  86.3983 125.1926 0002105  97.0101 263.1335 14.36408260409116
IRIDIUM 69              
1 25319U 98026A   25065.27441530  .00000738  00000+0  22454-3 0  9996
2 25319  86.4008 138.9097 0003146  49.2438 310.9034 14.40800522408243
IRIDIUM 71              
1 25320U 98026B   25065.57310834  .00000623  00000+0  18787-3 0  9990
2 25320  86.3994 133.4963 0004238  80.7912 279.3767 14.41011005408815
IRIDIUM 73              
1 25344U 98032C   25065.55903453  .00000900  00000+0  22042-3 0  9993
2 25344  86.4356  90.4178 0002270  74.9973 285.1484 14.51477578415675
IRIDIUM 82              
1 25467U 98051A   25065.29502333  .00023296  00000+0  79958-3 0  9994
2 25467  86.3745 160.0674 0095096 326.2598  33.2617 15.25696460408230
